STARLINK-11189 [DTC]    
1 60188C 24124F   26102.07895833 -.00037843  00000+0 -31183-3 0  1021
2 60188  53.1571 357.0296 0001120  82.0700 261.9604 15.69720358    15
STARLINK-11183 [DTC]    
1 60189C 24124G   26102.09076389  .00020526  00000+0  16917-3 0  1027
2 60189  53.1570 356.9144 0001057  91.4260 347.0925 15.69685695    15
STARLINK-11179 [DTC]    
1 60190C 24124H   26102.08243056 -.00058424  00000+0 -48159-3 0  1028
2 60190  53.1573 356.8982 0001028  84.3301 334.8165 15.69721892    14
STARLINK-11175 [DTC]    
1 60191C 24124J   26102.03868056 -.00074922  00000+0 -61731-3 0  1029
2 60191  53.1573 357.0571 0001230  74.6524 124.8576 15.69740592    17
STARLINK-11173 [DTC]    
1 60192C 24124K   26102.05465278 -.00053884  00000+0 -44404-3 0  1023
2 60192  53.1572 356.9216 0001155  79.6652 237.8934 15.69726762    10
STARLINK-11172 [DTC]    
1 60193C 24124L   26102.11993056  .00019582  00000+0  16186-3 0  1022
2 60193  53.1572 356.5428 0001128  83.4635 271.0808 15.69616735    14
STARLINK-11152 [DTC]    
1 60194C 24124M   26102.06854167 -.00029821  00000+0 -24577-3 0  1028
2 60194  53.1573 356.7388 0000943 100.9827 350.5790 15.69712167    14
STARLINK-11193 [DTC]    
1 60195C 24124N   26102.10118056  .00015940  00000+0  13136-3 0  1028
2 60195  53.1576 356.5208 0001199  75.3759 228.4798 15.69691099    11
STARLINK-31869          
1 60196C 24124P   26102.05951389  .00010394  00000+0  35043-3 0  1026
2 60196  53.1589 167.4086 0000862  86.0271 358.6956 15.30176375    18
STARLINK-32023          
1 60197C 24124Q   26102.11854167  .00033377  00000+0  11249-2 0  1027
2 60197  53.1574 167.5154 0001064  98.2949 119.8061 15.30176729    19
STARLINK-32046          
1 60198C 24124R   26102.08104167 -.00002083  00000+0 -70200-4 0  1028
2 60198  53.1580 167.4332 0001157  89.5167  49.8790 15.30187285    12
STARLINK-32049          
1 60199C 24124S   26102.06368056  .00060353  00000+0  20347-2 0  1023
2 60199  53.1573 167.6648 0001675 122.0786 206.0179 15.30151724    19
STARLINK-32002          
1 60200C 24124T   26102.03659722  .00000129  00000+0  43571-5 0  1028
2 60200  53.1582 167.6512 0001168  94.0727 154.5415 15.30185676    15
STARLINK-32020          
1 60201C 24124U   26102.11368056 -.00152980  00000+0 -51495-2 0  1021
2 60201  53.1586 166.9905 0001382  99.7215   5.0277 15.30307843    18
STARLINK-32041          
1 60202C 24124V   26102.07409722  .00171990  00000+0  57997-2 0  1026
2 60202  53.1583 167.4407 0001425  68.7074  43.9478 15.30088986    14
STARLINK-32138          
1 60255C 24131A   26102.08520833 -.00036682  00000+0 -12363-2 0  1028
2 60255  53.1569 257.4417 0001046  87.9946 133.8443 15.30210795    13
STARLINK-32212          
1 60256C 24131B   26102.09215278 -.00057853  00000+0 -19498-2 0  1023
2 60256  53.1568 257.5597 0001132  88.2205 102.0895 15.30222085    15
STARLINK-32166          
1 60257C 24131C   26102.10743056 -.00035899  00000+0 -12103-2 0  1028
2 60257  53.1575 257.5459 0001147  86.7000 152.9394 15.30199798    15
STARLINK-32200          
1 60258C 24131D   26102.05395833 -.00044230  00000+0 -14905-2 0  1020
2 60258  53.1566 257.7035 0001109  83.4059 268.0204 15.30219579    13
STARLINK-32207          
1 60259C 24131E   26102.04770833 -.00044936  00000+0 -15143-2 0  1025
2 60259  53.1567 257.7210 0000356  64.6271 263.9785 15.30219716    11
STARLINK-32125          
1 60260C 24131F   26102.05187500 -.00046708  00000+0 -15738-2 0  1020
2 60260  53.1577 257.1440 0001206  93.4615 177.3003 15.30223436    15
STARLINK-32160          
1 60261C 24131G   26102.07548611 -.00051985  00000+0 -17519-2 0  1029
2 60261  53.1570 257.6321 0001113  88.5727   4.0703 15.30221685    15
STARLINK-32163          
1 60262C 24131H   26102.09979167 -.00045076  00000+0 -15193-2 0  1026
2 60262  53.1591 257.1654 0001236  86.5790 320.3456 15.30212979    12
STARLINK-32148          
1 60263C 24131J   26102.11784722  .00016193  00000+0  54644-3 0  1022
2 60263  53.1580 257.1821 0001160  75.2723  18.7671 15.30144597    11
STARLINK-32121          
1 60264C 24131K   26102.11784722 -.00029094  00000+0 -98021-3 0  1026
2 60264  53.1575 257.2213 0000570  90.5509 346.0359 15.30218758    19
STARLINK-32120          
1 60265C 24131L   26102.08590278 -.00040619  00000+0 -13336-2 0  1025
2 60265  53.1578 257.4493 0000972  85.7412 132.7814 15.31055870    11
STARLINK-32205          
1 60266C 24131M   26102.10326389 -.00027693  00000+0 -93265-3 0  1026
2 60266  53.1567 257.4370 0001667  91.6277 194.7042 15.30228635    12
STARLINK-32158          
1 60267C 24131N   26102.05881944 -.00045131  00000+0 -15209-2 0  1022
2 60267  53.1590 257.2738 0001126  82.1888 139.6128 15.30217416    16
STARLINK-32167          
1 60268C 24131P   26102.05118056 -.00026085  00000+0 -87913-3 0  1029
2 60268  53.1577 257.1657 0001155  88.6309 172.4008 15.30205481    13
STARLINK-32144          
1 60269C 24131Q   26102.03937500 -.00027789  00000+0 -93637-3 0  1023
2 60269  53.1580 257.5130 0001358  85.1238 313.8880 15.30212993    11
STARLINK-32211          
1 60270C 24131R   26102.04701389 -.00032027  00000+0 -10793-2 0  1022
2 60270  53.1571 257.8030 0001305  87.2682 196.7829 15.30210032    16
STARLINK-32164          
1 60271C 24131S   26102.05395833 -.00040340  00000+0 -13595-2 0  1027
2 60271  53.1576 257.8035 0001006  91.9106 207.1751 15.30214670    11
STARLINK-32128          
1 60272C 24131T   26102.09423611 -.00046254  00000+0 -15589-2 0  1023
2 60272  53.1589 257.0783 0001099  84.5301 349.9294 15.30216018    10
STARLINK-32206          
1 60273C 24131U   26102.08590278 -.00057007  00000+0 -19212-2 0  1022
2 60273  53.1568 257.5510 0000928  85.7880  87.5234 15.30223093    16
STARLINK-32155          
1 60274C 24131V   26102.09493056 -.00052402  00000+0 -17659-2 0  1027
2 60274  53.1568 257.4291 0001010  79.2717 178.7023 15.30221997    12
STARLINK-32152          
1 60275C 24131W   26102.05118056 -.00026809  00000+0 -90345-3 0  1024
2 60275  53.1586 257.2412 0001129  83.8121 130.7856 15.30208978    13
STARLINK-32154          
1 60276C 24131X   26102.05812500 -.00001856  00000+0 -62708-4 0  1028
2 60276  53.1578 257.1383 0001546  81.5864 206.1951 15.30117297    10
STARLINK-32135          
1 60277C 24131Y   26102.10951389 -.00049552  00000+0 -16699-2 0  1025
2 60277  53.1593 257.0815 0001064  83.1889  34.7630 15.30219862    17
STARLINK-32156          
1 60278C 24132A   26102.09979167 -.00022397  00000+0 -75520-3 0  1026
2 60278  53.1586 257.1568 0000884  90.1661  26.4665 15.30188765    14
STARLINK-32010          
1 60279C 24132B   26102.03590278 -.00030867  00000+0 -10401-2 0  1020
2 60279  53.1568 257.8112 0001043  82.3503 221.7986 15.30213086    14
STARLINK-32118          
1 60280C 24132C   26102.11645833 -.00043839  00000+0 -14773-2 0  1028
2 60280  53.1584 257.0091 0000919  82.4116 160.9536 15.30218199    19
STARLINK-32038          
1 60281C 24132D   26102.11993056 -.00040587  00000+0 -13678-2 0  1022
2 60281  53.1583 257.0165 0001192  85.9861 164.8859 15.30215236    10
STARLINK-32113          
1 60282C 24132E   26102.05465278 -.00030281  00000+0 -10205-2 0  1029
2 60282  53.1584 257.3318 0001176  85.2288 160.0313 15.30210311    15
STARLINK-32037          
1 60283C 24132F   26102.10951389 -.00044247  00000+0 -14913-2 0  1026
2 60283  53.1588 257.2921 0001226  84.2220 352.9079 15.30214456    15
STARLINK-32123          
1 60284C 24132G   26102.07687500 -.00049274  00000+0 -16611-2 0  1026
2 60284  53.1578 244.7176 0001187  79.9851 157.0794 15.30208072    10
STARLINK-32122          
1 60285C 24132H   26102.05326389 -.00038897  00000+0 -13108-2 0  1027
2 60285  53.1592 257.4881 0001200  79.4172  82.5689 15.30216069    18
STARLINK-31656          
1 60286C 24132J   26102.07479167 -.00032025  00000+0 -10792-2 0  1026
2 60286  53.1578 257.1408 0000834  84.3817 324.2150 15.30212476    15
STARLINK-32114          
1 60287C 24132K   26102.09076389 -.00062530  00000+0 -21073-2 0  1026
2 60287  53.1568 257.5956 0001145  84.1566 139.1153 15.30224917    11
STARLINK-31997          
1 60288C 24132L   26102.10534722 -.00055406  00000+0 -18671-2 0  1023
2 60288  53.1568 256.8862 0000929  85.6886 183.6826 15.30224271    14
STARLINK-32000          
1 60289C 24132M   26102.09006944 -.00038409  00000+0 -12949-2 0  1028
2 60289  53.1580 257.4192 0000235 346.0006 326.5107 15.30201653    19
STARLINK-32141          
1 60290C 24132N   26102.11923611 -.00051797  00000+0 -17457-2 0  1026
2 60290  53.1589 257.1110 0001159  88.5818 111.9242 15.30218713    13
STARLINK-32142          
1 60291C 24132P   26102.04493056 -.00040623  00000+0 -13689-2 0  1023
2 60291  53.1574 257.2257 0001126  83.6354 183.6502 15.30218462    12
STARLINK-32149          
1 60292C 24132Q   26102.04493056 -.00017628  00000+0 -59429-3 0  1026
2 60292  53.1575 257.6632 0001797  86.4022 319.8821 15.30190419    10
STARLINK-32159          
1 60293C 24132R   26102.04006944 -.00029619  00000+0 -99809-3 0  1022
2 60293  53.1571 257.2243 0001189  85.0892 167.0402 15.30212506    16
STARLINK-32150          
1 60294C 24132S   26102.11298611 -.00035488  00000+0 -11961-2 0  1028
2 60294  53.1573 257.3808 0000796  89.4339 314.4826 15.30209474    12
STARLINK-32126          
1 60295C 24132T   26102.07618056 -.00051246  00000+0 -17270-2 0  1022
2 60295  53.1567 257.6858 0001119  84.2339  47.0262 15.30220491    12
STARLINK-32143          
1 60296C 24132U   26102.07479167 -.00037373  00000+0 -12596-2 0  1022
2 60296  53.1571 257.5927 0000354  75.7258 100.2211 15.30210571    13
STARLINK-32034          
1 60297C 24132V   26102.12270833 -.00043437  00000+0 -14640-2 0  1028
2 60297  53.1589 257.2197 0000580  82.1418  73.5296 15.30212748    13
STARLINK-32124          
1 60298C 24132W   26102.03659722 -.00021703  00000+0 -73139-3 0  1028
2 60298  53.1570 257.7585 0000967  84.0846 247.1595 15.30205916    15
